[{"OBJECT_NAME":"STARLINK-30538","OBJECT_ID":"2023-153D","EPOCH":"2026-03-09T22:00:01.999584","MEAN_MOTION":15.27557584,"ECCENTRICITY":0.00013998,"INCLINATION":43.0008,"RA_OF_ASC_NODE":65.8341,"ARG_OF_PERICENTER":254.5795,"MEAN_ANOMALY":345.7909,"EPHEMERIS_TYPE":0,"CLASSIFICATION_TYPE":"U","NORAD_CAT_ID":57994,"ELEMENT_SET_NO":999,"REV_AT_EPOCH":578,"BSTAR":0.0018460745,"MEAN_MOTION_DOT":0.00050854,"MEAN_MOTION_DDOT":0},{"OBJECT_NAME":"MESON-1","OBJECT_ID":"2024-043AK","EPOCH":"2026-03-09T21:36:16.481664","MEAN_MOTION":15.29893494,"ECCENTRICITY":0.00095452,"INCLINATION":97.5469,"RA_OF_ASC_NODE":205.2839,"ARG_OF_PERICENTER":227.1432,"MEAN_ANOMALY":132.9007,"EPHEMERIS_TYPE":0,"CLASSIFICATION_TYPE":"U","NORAD_CAT_ID":59131,"ELEMENT_SET_NO":999,"REV_AT_EPOCH":11189,"BSTAR":0.0002974823,"MEAN_MOTION_DOT":8.544e-5,"MEAN_MOTION_DDOT":0}]
